$$SOE
2459580.500000000, A.D. 2022-Jan-01 00:00:00.0000, 2.707146630464106E+08, -2.596868154010029E+08, -1.225766623332906E+07,
2459587.500000000, A.D. 2022-Jan-08 00:00:00.0000, 2.772691102633102E+08, -2.510729367139401E+08, -1.062219313176711E+07,
2459594.500000000, A.D. 2022-Jan-15 00:00:00.0000, 2.835668786342818E+08, -2.422264789075533E+08, -8.976883159491494E+06,
2459601.500000000, A.D. 2022-Jan-22 00:00:00.0000, 2.895996918822573E+08, -2.331535471030570E+08, -7.323184580072403E+06,
2459608.500000000, A.D. 2022-Jan-29 00:00:00.0000, 2.953593226919989E+08, -2.238605361119168E+08, -5.662579615779459E+06,
2459615.500000000, A.D. 2022-Feb-05 00:00:00.0000, 3.008375987145132E+08, -2.143541391034014E+08, -3.996584678192109E+06,
2459622.500000000, A.D. 2022-Feb-12 00:00:00.0000, 3.060264114912779E+08, -2.046413573941940E+08, -2.326750830741063E+06,
2459629.500000000, A.D. 2022-Feb-19 00:00:00.0000, 3.109177270144073E+08, -1.947295089529497E+08, -6.546641602622271E+05,
2459636.500000000, A.D. 2022-Feb-26 00:00:00.0000, 3.155035966526480E+08, -1.846262363016896E+08, 1.018054012027666E+06,
2459643.500000000, A.D. 2022-Mar-05 00:00:00.0000, 3.197761686429781E+08, -1.743395143847563E+08, 2.689747024015673E+06,
2459650.500000000, A.D. 2022-Mar-12 00:00:00.0000, 3.237277004096777E+08, -1.638776584193522E+08, 4.358722854397051E+06,
2459657.500000000, A.D. 2022-Mar-19 00:00:00.0000, 3.273505718214653E+08, -1.532493316424150E+08, 6.023254198486254E+06,
2459664.500000000, A.D. 2022-Mar-26 00:00:00.0000, 3.306372994474978E+08, -1.424635528971402E+08, 7.681578646377079E+06,
2459671.500000000, A.D. 2022-Apr-02 00:00:00.0000, 3.335805519156393E+08, -1.315297040466233E+08, 9.331898963963516E+06,
2459678.500000000, A.D. 2022-Apr-09 00:00:00.0000, 3.361731666761217E+08, -1.204575371336419E+08, 1.097238346381977E+07,
2459685.500000000, A.D. 2022-Apr-16 00:00:00.0000, 3.384081685568838E+08, -1.092571805467235E+08, 1.260116649889878E+07,
2459692.500000000, A.D. 2022-Apr-23 00:00:00.0000, 3.402787888730880E+08, -9.793914301734197E+07, 1.421634929794911E+07,
2459699.500000000, A.D. 2022-Apr-30 00:00:00.0000, 3.417784832471096E+08, -8.651431760071893E+07, 1.581600114530272E+07,
2459706.500000000, A.D. 2022-May-07 00:00:00.0000, 3.429009512154470E+08, -7.499398751148930E+07, 1.739816047685570E+07,
2459713.500000000, A.D. 2022-May-14 00:00:00.0000, 3.436401590194079E+08, -6.338983066209338E+07, 1.896083602764929E+07,
2459720.500000000, A.D. 2022-May-21 00:00:00.0000, 3.439903635526789E+08, -5.171392202497022E+07, 2.050200829513014E+07,
2459727.500000000, A.D. 2022-May-28 00:00:00.0000, 3.439461369831710E+08, -3.997873465195802E+07, 2.201963130007316E+07,
2459734.500000000, A.D. 2022-Jun-04 00:00:00.0000, 3.435023923111172E+08, -2.819713953274342E+07, 2.351163461077090E+07,
2459741.500000000, A.D. 2022-Jun-11 00:00:00.0000, 3.426544099788752E+08, -1.638240415381251E+07, 2.497592563356285E+07,
2459748.500000000, A.D. 2022-Jun-18 00:00:00.0000, 3.413978655248697E+08, -4.548189602004288E+06, 2.641039218214680E+07,
2459755.500000000, A.D. 2022-Jun-25 00:00:00.0000, 3.397288582473426E+08, 7.291453905284297E+06, 2.781290533356735E+07,
2459762.500000000, A.D. 2022-Jul-02 00:00:00.0000, 3.376439409338030E+08, 1.912209315744225E+07, 2.918132256567102E+07,
2459769.500000000, A.D. 2022-Jul-09 00:00:00.0000, 3.351401509550161E+08, 3.092892009722106E+07, 3.051349116705911E+07,
2459776.500000000, A.D. 2022-Jul-16 00:00:00.0000, 3.322150425610112E+08, 4.269676322669588E+07, 3.180725202579051E+07,
2459783.500000000, A.D. 2022-Jul-23 00:00:00.0000, 3.288667180627111E+08, 5.441010251714724E+07, 3.306044401935425E+07,
2459790.500000000, A.D. 2022-Jul-30 00:00:00.0000, 3.250938578482270E+08, 6.605308462323593E+07, 3.427090873709212E+07,
2459797.500000000, A.D. 2022-Aug-06 00:00:00.0000, 3.208957526603827E+08, 7.760953919570243E+07, 3.543649526453123E+07,
2459804.500000000, A.D. 2022-Aug-13 00:00:00.0000, 3.162723371104841E+08, 8.906299919297001E+07, 3.655506533306433E+07,
2459811.500000000, A.D. 2022-Aug-20 00:00:00.0000, 3.112242226371623E+08, 1.003967248269084E+08, 3.762449893833479E+07,
2459818.500000000, A.D. 2022-Aug-27 00:00:00.0000, 3.057527297339684E+08, 1.115937305412720E+08, 3.864270035876021E+07,
2459825.500000000, A.D. 2022-Sep-03 00:00:00.0000, 2.998599194249291E+08, 1.226368150204429E+08, 3.960760453527049E+07,
2459832.500000000, A.D. 2022-Sep-10 00:00:00.0000, 2.935486237856569E+08, 1.335085943401363E+08, 4.051718379421441E+07,
2459839.500000000, A.D. 2022-Sep-17 00:00:00.0000, 2.868224752243363E+08, 1.441915383218918E+08, 4.136945489392837E+07,
2459846.500000000, A.D. 2022-Sep-24 00:00:00.0000, 2.796859342474226E+08, 1.546680100761217E+08, 4.216248636350483E+07,
2459853.500000000, A.D. 2022-Oct-01 00:00:00.0000, 2.721443155975629E+08, 1.649203087147951E+08, 4.289440608297829E+07,
2459860.500000000, A.D. 2022-Oct-08 00:00:00.0000, 2.642038128040747E+08, 1.749307157191278E+08, 4.356340907680596E+07,
2459867.500000000, A.D. 2022-Oct-15 00:00:00.0000, 2.558715198270276E+08, 1.846815460792211E+08, 4.416776566190703E+07,
2459874.500000000, A.D. 2022-Oct-22 00:00:00.0000, 2.471554472160532E+08, 1.941552024046392E+08, 4.470582996648562E+07,
2459881.500000000, A.D. 2022-Oct-29 00:00:00.0000, 2.380645348991473E+08, 2.033342292494099E+08, 4.517604832917923E+07,
2459888.500000000, A.D. 2022-Nov-05 00:00:00.0000, 2.286086633147971E+08, 2.122013701644763E+08, 4.557696754850695E+07,
2459895.500000000, A.D. 2022-Nov-12 00:00:00.0000, 2.187986605334165E+08, 2.207396284657389E+08, 4.590724319641590E+07,
2459902.500000000, A.D. 2022-Nov-19 00:00:00.0000, 2.086463042770473E+08, 2.289323304376095E+08, 4.616564790964325E+07,
2459909.500000000, A.D. 2022-Nov-26 00:00:00.0000, 1.981643187543196E+08, 2.367631901992984E+08, 4.635107952446930E+07,
2459916.500000000, A.D. 2022-Dec-03 00:00:00.0000, 1.873663661663625E+08, 2.442163757977898E+08, 4.646256895868483E+07,
2459923.500000000, A.D. 2022-Dec-10 00:00:00.0000, 1.762670326631357E+08, 2.512765760730426E+08, 4.649928775700781E+07,
2459930.500000000, A.D. 2022-Dec-17 00:00:00.0000, 1.648818085605461E+08, 2.579290677498540E+08, 4.646055521340500E+07,
2459937.500000000, A.D. 2022-Dec-24 00:00:00.0000, 1.532270627707199E+08, 2.641597821267172E+08, 4.634584497154163E+07,
2459944.500000000, A.D. 2022-Dec-31 00:00:00.0000, 1.413200117093986E+08, 2.699553708704450E+08, 4.615479099594302E+07,
2459951.500000000, A.D. 2023-Jan-07 00:00:00.0000, 1.291786827819861E+08, 2.753032712537458E+08, 4.588719289917490E+07,
2459958.500000000, A.D. 2023-Jan-14 00:00:00.0000, 1.168218705339988E+08, 2.801917706788337E+08, 4.554302076370853E+07,
2459965.500000000, A.D. 2023-Jan-21 00:00:00.0000, 1.042690849371107E+08, 2.846100666517997E+08, 4.512241918077576E+07,
2459972.500000000, A.D. 2023-Jan-28 00:00:00.0000, 9.154049568575308E+07, 2.885483213773559E+08, 4.462571009015729E+07,
2459979.500000000, A.D. 2023-Feb-04 00:00:00.0000, 7.865687259811492E+07, 2.919977133730659E+08, 4.405339462926596E+07,
2459986.500000000, A.D. 2023-Feb-11 00:00:00.0000, 6.563952069964702E+07, 2.949504852979815E+08, 4.340615408954497E+07,
2459993.500000000, A.D. 2023-Feb-18 00:00:00.0000, 5.251021037537647E+07, 2.973999866062534E+08, 4.268484988122727E+07,
2460000.500000000, A.D. 2023-Feb-25 00:00:00.0000, 3.929110337915017E+07, 2.993407103522096E+08, 4.189052244514418E+07,
2460007.500000000, A.D. 2023-Mar-04 00:00:00.0000, 2.600467539524977E+07, 3.007683237173619E+08, 4.102438909340309E+07,
2460014.500000000, A.D. 2023-Mar-11 00:00:00.0000, 1.267363583391112E+07, 3.016796918841053E+08, 4.008784077984355E+07,
2460021.500000000, A.D. 2023-Mar-18 00:00:00.0000, -6.791543886779154E+05, 3.020728949097180E+08, 3.908243780852367E+07,
2460028.500000000, A.D. 2023-Mar-25 00:00:00.0000, -1.403076614076455E+07, 3.019472373375632E+08, 3.800990448604527E+07,
2460035.500000000, A.D. 2023-Apr-01 00:00:00.0000, -2.735828524945464E+07, 3.013032508065286E+08, 3.687212275063965E+07,
2460042.500000000, A.D. 2023-Apr-08 00:00:00.0000, -4.063889541210460E+07, 3.001426908460859E+08, 3.567112498821372E+07,
2460049.500000000, A.D. 2023-Apr-15 00:00:00.0000, -5.384996242548195E+07, 2.984685268132305E+08, 3.440908622799680E+07,
2460056.500000000, A.D. 2023-Apr-22 00:00:00.0000, -6.696911719016081E+07, 2.962849220717986E+08, 3.308831538495554E+07,
2460063.500000000, A.D. 2023-Apr-29 00:00:00.0000, -7.997433405850253E+07, 2.935972069360896E+08, 3.171124557915042E+07,
2460070.500000000, A.D. 2023-May-06 00:00:00.0000, -9.284400560994528E+07, 2.904118465233538E+08, 3.028042393990692E+07,
2460077.500000000, A.D. 2023-May-13 00:00:00.0000, -1.055570142013895E+08, 2.867364030356441E+08, 2.879850101153797E+07,
2460084.500000000, A.D. 2023-May-20 00:00:00.0000, -1.180927995013713E+08, 2.825794924519259E+08, 2.726821980195023E+07,
2460091.500000000, A.D. 2023-May-27 00:00:00.0000, -1.304314213325764E+08, 2.779507361307045E+08, 2.569240455940898E+07,
2460098.500000000, A.D. 2023-Jun-03 00:00:00.0000, -1.425536173611401E+08, 2.728607079256617E+08, 2.407394938024706E+07,
2460105.500000000, A.D. 2023-Jun-10 00:00:00.0000, -1.544408552856365E+08, 2.673208774116294E+08, 2.241580674862432E+07,
2460112.500000000, A.D. 2023-Jun-17 00:00:00.0000, -1.660753791953287E+08, 2.613435497939653E+08, 2.072097609622702E+07,
2460119.500000000, A.D. 2023-Jun-24 00:00:00.0000, -1.774402496180579E+08, 2.549418031997243E+08, 1.899249245298244E+07,
2460126.500000000, A.D. 2023-Jul-01 00:00:00.0000, -1.885193769261218E+08, 2.481294248197209E+08, 1.723341532274042E+07,
2460133.500000000, A.D. 2023-Jul-08 00:00:00.0000, -1.992975497757621E+08, 2.409208473560061E+08, 1.544681808660209E+07,
2460140.500000000, A.D. 2023-Jul-15 00:00:00.0000, -2.097604599264036E+08, 2.333310835613004E+08, 1.363577789272408E+07,
2460147.500000000, A.D. 2023-Jul-22 00:00:00.0000, -2.198947200413772E+08, 2.253756584091756E+08, 1.180336568890218E+07,
$$EOE